{
    "links": {
        "self": "http://www.neowsapp.com/rest/v1/neo/3690056?api_key=iIulBulltgU6a56xZRHN4H3l9WmuAYTsLGpBGhQ2"
    },
    "id": "3690056",
    "neo_reference_id": "3690056",
    "name": "(2014 SE144)",
    "designation": "2014 SE144",
    "nasa_jpl_url": "http://ssd.jpl.nasa.gov/sbdb.cgi?sstr=3690056",
    "absolute_magnitude_h": 26.9,
    "estimated_diameter": {
        "kilometers": {
            "estimated_diameter_min": 0.0110803882,
            "estimated_diameter_max": 0.0247765013
        },
        "meters": {
            "estimated_diameter_min": 11.0803882126,
            "estimated_diameter_max": 24.7765012606
        },
        "miles": {
            "estimated_diameter_min": 0.0068850319,
            "estimated_diameter_max": 0.0153953994
        },
        "feet": {
            "estimated_diameter_min": 36.3529808636,
            "estimated_diameter_max": 81.2877363957
        }
    },
    "is_potentially_hazardous_asteroid": false,
    "close_approach_data": [
        {
            "close_approach_date": "2012-10-02",
            "close_approach_date_full": "2012-Oct-02 11:32",
            "epoch_date_close_approach": 1349177520000,
            "relative_velocity": {
                "kilometers_per_second": "11.2326317074",
                "kilometers_per_hour": "40437.474146734",
                "miles_per_hour": "25126.2738663414"
            },
            "miss_distance": {
                "astronomical": "0.2497871376",
                "lunar": "97.1671965264",
                "kilometers": "37367623.738356912",
                "miles": "23219164.7040409056"
            },
            "orbiting_body": "Earth"
        },
        {
            "close_approach_date": "2014-09-06",
            "close_approach_date_full": "2014-Sep-06 03:11",
            "epoch_date_close_approach": 1409973060000,
            "relative_velocity": {
                "kilometers_per_second": "4.5902859431",
                "kilometers_per_hour": "16525.0293951623",
                "miles_per_hour": "10268.0106261218"
            },
            "miss_distance": {
                "astronomical": "0.0494313615",
                "lunar": "19.2287996235",
                "kilometers": "7394826.391600005",
                "miles": "4594932.049909869"
            },
            "orbiting_body": "Earth"
        }
    ],
    "orbital_data": {
        "orbit_id": "4",
        "orbit_determination_date": "2017-04-06 08:38:32",
        "first_observation_date": "2014-09-20",
        "last_observation_date": "2014-09-28",
        "data_arc_in_days": 8,
        "observations_used": 12,
        "orbit_uncertainty": "8",
        "minimum_orbit_intersection": ".0458019",
        "jupiter_tisserand_invariant": "4.351",
        "epoch_osculation": "2456921.5",
        "eccentricity": ".3315397203050811",
        "semi_major_axis": "1.569296923367644",
        "inclination": "2.540254602946988",
        "ascending_node_longitude": "7.460399238372213",
        "orbital_period": "718.052356540631",
        "perihelion_distance": "1.049012660318711",
        "perihelion_argument": "327.7567731482904",
        "aphelion_distance": "2.089581186416578",
        "perihelion_time": "2456899.819904951639",
        "mean_anomaly": "10.86945004262837",
        "mean_motion": ".501356198779677",
        "equinox": "J2000",
        "orbit_class": {
            "orbit_class_type": "AMO",
            "orbit_class_description": "Near-Earth asteroid orbits similar to that of 1221 Amor",
            "orbit_class_range": "1.017 AU < q (perihelion) < 1.3 AU"
        }
    },
    "is_sentry_object": false
}